[
    {
        "Altitude(m)": 704239.3474371014,
        "Argument of Periapsis(deg)": 0.009112096949301655,
        "Eccentricity": 0.0,
        "Inclination(deg)": 45.0,
        "Latitude(deg)": -5.122970343716749,
        "Longitude(deg)": 124.27109629692538,
        "Mean Anomaly(deg)": -7.137026682015307,
        "RAAN(deg)": 229.99139844683341,
        "Satellite Name": "Constellation 1 1033",
        "Satellite Number": 1033,
        "Semi-Major Axis(m)": 7083131.272910544,
        "Time(s)": 152
    },
    {
        "Altitude(m)": 704231.3698148138,
        "Argument of Periapsis(deg)": 0.009172044955547059,
        "Eccentricity": 0.0,
        "Inclination(deg)": 45.0,
        "Latitude(deg)": -5.079937596747405,
        "Longitude(deg)": 124.31017547580917,
        "Mean Anomaly(deg)": -7.076325541765446,
        "RAAN(deg)": 229.99134185766786,
        "Satellite Name": "Constellation 1 1033",
        "Satellite Number": 1033,
        "Semi-Major Axis(m)": 7083131.272910544,
        "Time(s)": 153
    },
    {
        "Altitude(m)": 704223.4114515404,
        "Argument of Periapsis(deg)": 0.009231992961792466,
        "Eccentricity": 0.0,
        "Inclination(deg)": 45.0,
        "Latitude(deg)": -5.036901822961117,
        "Longitude(deg)": 124.34924901064534,
        "Mean Anomaly(deg)": -7.015624401515611,
        "RAAN(deg)": 229.9912852685023,
        "Satellite Name": "Constellation 1 1033",
        "Satellite Number": 1033,
        "Semi-Major Axis(m)": 7083131.272910544,
        "Time(s)": 154
    },
    {
        "Altitude(m)": 704215.4723644861,
        "Argument of Periapsis(deg)": 0.009291940968037872,
        "Eccentricity": 0.0,
        "Inclination(deg)": 45.0,
        "Latitude(deg)": -4.993863047883052,
        "Longitude(deg)": 124.38831695042407,
        "Mean Anomaly(deg)": -6.954923261265646,
        "RAAN(deg)": 229.9912286793367,
        "Satellite Name": "Constellation 1 1033",
        "Satellite Number": 1033,
        "Semi-Major Axis(m)": 7083131.272910544,
        "Time(s)": 155
    },
    {
        "Altitude(m)": 704207.5525707707,
        "Argument of Periapsis(deg)": 0.009351888974283276,
        "Eccentricity": 0.0,
        "Inclination(deg)": 45.0,
        "Latitude(deg)": -4.950821297028008,
        "Longitude(deg)": 124.42737917602666,
        "Mean Anomaly(deg)": -6.894222121015685,
        "RAAN(deg)": 229.99117209017115,
        "Satellite Name": "Constellation 1 1033",
        "Satellite Number": 1033,
        "Semi-Major Axis(m)": 7083131.272910544,
        "Time(s)": 156
    },
    {
        "Altitude(m)": 704199.6520874078,
        "Argument of Periapsis(deg)": 0.00941183698052868,
        "Eccentricity": 0.0,
        "Inclination(deg)": 45.0,
        "Latitude(deg)": -4.907776595901027,
        "Longitude(deg)": 124.46643607261333,
        "Mean Anomaly(deg)": -6.83352098076595,
        "RAAN(deg)": 229.9911155010056,
        "Satellite Name": "Constellation 1 1033",
        "Satellite Number": 1033,
        "Semi-Major Axis(m)": 7083131.272910544,
        "Time(s)": 157
    },
    {
        "Altitude(m)": 704191.7709313425,
        "Argument of Periapsis(deg)": 0.009471784986774088,
        "Eccentricity": 0.0,
        "Inclination(deg)": 45.0,
        "Latitude(deg)": -4.864728969996064,
        "Longitude(deg)": 124.5054875210418,
        "Mean Anomaly(deg)": -6.772819840515937,
        "RAAN(deg)": 229.99105891184,
        "Satellite Name": "Constellation 1 1033",
        "Satellite Number": 1033,
        "Semi-Major Axis(m)": 7083131.272910544,
        "Time(s)": 158
    },
    {
        "Altitude(m)": 704183.9091194182,
        "Argument of Periapsis(deg)": 0.009531732993019492,
        "Eccentricity": 0.0,
        "Inclination(deg)": 45.0,
        "Latitude(deg)": -4.8216784447977465,
        "Longitude(deg)": 124.54453357025477,
        "Mean Anomaly(deg)": -6.712118700266102,
        "RAAN(deg)": 229.9910023226744,
        "Satellite Name": "Constellation 1 1033",
        "Satellite Number": 1033,
        "Semi-Major Axis(m)": 7083131.272910544,
        "Time(s)": 159
    },
    {
        "Altitude(m)": 704176.066668381,
        "Argument of Periapsis(deg)": 0.009591680999264898,
        "Eccentricity": 0.0,
        "Inclination(deg)": 45.0,
        "Latitude(deg)": -4.7786250457802355,
        "Longitude(deg)": 124.58357426918354,
        "Mean Anomaly(deg)": -6.651417560016138,
        "RAAN(deg)": 229.99094573350885,
        "Satellite Name": "Constellation 1 1033",
        "Satellite Number": 1033,
        "Semi-Major Axis(m)": 7083131.272910544,
        "Time(s)": 160
    },
    {
        "Altitude(m)": 704168.2435949051,
        "Argument of Periapsis(deg)": 0.009651629005510304,
        "Eccentricity": 0.0,
        "Inclination(deg)": 45.0,
        "Latitude(deg)": -4.735568798408124,
        "Longitude(deg)": 124.62260966674766,
        "Mean Anomaly(deg)": -6.590716419766303,
        "RAAN(deg)": 229.9908891443433,
        "Satellite Name": "Constellation 1 1033",
        "Satellite Number": 1033,
        "Semi-Major Axis(m)": 7083131.272910544,
        "Time(s)": 161
    },
    {
        "Altitude(m)": 704160.4399155644,
        "Argument of Periapsis(deg)": 0.00971157701175571,
        "Eccentricity": 0.0,
        "Inclination(deg)": 45.0,
        "Latitude(deg)": -4.692509728135905,
        "Longitude(deg)": 124.66163981185561,
        "Mean Anomaly(deg)": -6.53001527951634,
        "RAAN(deg)": 229.99083255517775,
        "Satellite Name": "Constellation 1 1033",
        "Satellite Number": 1033,
        "Semi-Major Axis(m)": 7083131.272910544,
        "Time(s)": 162
    },
    {
        "Altitude(m)": 704152.6556468435,
        "Argument of Periapsis(deg)": 0.009771525018001118,
        "Eccentricity": 0.0,
        "Inclination(deg)": 45.0,
        "Latitude(deg)": -4.649447860408533,
        "Longitude(deg)": 124.70066458530708,
        "Mean Anomaly(deg)": -6.469314139266555,
        "RAAN(deg)": 229.99077596601217,
        "Satellite Name": "Constellation 1 1033",
        "Satellite Number": 1033,
        "Semi-Major Axis(m)": 7083131.272910544,
        "Time(s)": 163
    },
    {
        "Altitude(m)": 704144.8908051345,
        "Argument of Periapsis(deg)": 0.00983147302424652,
        "Eccentricity": 0.0,
        "Inclination(deg)": 45.0,
        "Latitude(deg)": -4.606383220661389,
        "Longitude(deg)": 124.7396843721822,
        "Mean Anomaly(deg)": -6.408612999016594,
        "RAAN(deg)": 229.99071937684656,
        "Satellite Name": "Constellation 1 1033",
        "Satellite Number": 1033,
        "Semi-Major Axis(m)": 7083131.272910544,
        "Time(s)": 164
    },
    {
        "Altitude(m)": 704137.1454067441,
        "Argument of Periapsis(deg)": 0.009891421030491928,
        "Eccentricity": 0.0,
        "Inclination(deg)": 45.0,
        "Latitude(deg)": -4.563315834320209,
        "Longitude(deg)": 124.77869905325846,
        "Mean Anomaly(deg)": -6.347911858766629,
        "RAAN(deg)": 229.990662787681,
        "Satellite Name": "Constellation 1 1033",
        "Satellite Number": 1033,
        "Semi-Major Axis(m)": 7083131.272910544,
        "Time(s)": 165
    },
    {
        "Altitude(m)": 704129.4194678888,
        "Argument of Periapsis(deg)": 0.009951369036737332,
        "Eccentricity": 0.0,
        "Inclination(deg)": 45.0,
        "Latitude(deg)": -4.520245726801406,
        "Longitude(deg)": 124.8177086773996,
        "Mean Anomaly(deg)": -6.2872107185167945,
        "RAAN(deg)": 229.99060619851545,
        "Satellite Name": "Constellation 1 1033",
        "Satellite Number": 1033,
        "Semi-Major Axis(m)": 7083131.272910544,
        "Time(s)": 166
    },
    {
        "Altitude(m)": 704121.7130046858,
        "Argument of Periapsis(deg)": 0.010011317042982738,
        "Eccentricity": 0.0,
        "Inclination(deg)": 45.0,
        "Latitude(deg)": -4.4771729235119055,
        "Longitude(deg)": 124.85671329345828,
        "Mean Anomaly(deg)": -6.226509578266933,
        "RAAN(deg)": 229.9905496093499,
        "Satellite Name": "Constellation 1 1033",
        "Satellite Number": 1033,
        "Semi-Major Axis(m)": 7083131.272910544,
        "Time(s)": 167
    },
    {
        "Altitude(m)": 704114.0260331779,
        "Argument of Periapsis(deg)": 0.010071265049228144,
        "Eccentricity": 0.0,
        "Inclination(deg)": 45.0,
        "Latitude(deg)": -4.4340974498493395,
        "Longitude(deg)": 124.89571295027677,
        "Mean Anomaly(deg)": -6.165808438016945,
        "RAAN(deg)": 229.99049302018426,
        "Satellite Name": "Constellation 1 1033",
        "Satellite Number": 1033,
        "Semi-Major Axis(m)": 7083131.272910544,
        "Time(s)": 168
    },
    {
        "Altitude(m)": 704106.3585693013,
        "Argument of Periapsis(deg)": 0.01013121305547355,
        "Eccentricity": 0.0,
        "Inclination(deg)": 45.0,
        "Latitude(deg)": -4.391019331202515,
        "Longitude(deg)": 124.93470769668626,
        "Mean Anomaly(deg)": -6.105107297767083,
        "RAAN(deg)": 229.9904364310187,
        "Satellite Name": "Constellation 1 1033",
        "Satellite Number": 1033,
        "Semi-Major Axis(m)": 7083131.272910544,
        "Time(s)": 169
    },
    {
        "Altitude(m)": 704098.7106289171,
        "Argument of Periapsis(deg)": 0.010191161061718957,
        "Eccentricity": 0.0,
        "Inclination(deg)": 45.0,
        "Latitude(deg)": -4.347938592950846,
        "Longitude(deg)": 124.97369758150744,
        "Mean Anomaly(deg)": -6.0444061575172485,
        "RAAN(deg)": 229.99037984185316,
        "Satellite Name": "Constellation 1 1033",
        "Satellite Number": 1033,
        "Semi-Major Axis(m)": 7083131.272910544,
        "Time(s)": 170
    }
]